CCSDS_OMM_VERS = 2.0
CREATION_DATE  = 
ORIGINATOR     = 

OBJECT_NAME    = SL-16 R/B
OBJECT_ID      = 1998-045B
CENTER_NAME    = EARTH
REF_FRAME      = TEME
TIME_SYSTEM    = UTC
MEAN_ELEMENT_THEORY = SGP/SGP4

EPOCH          = 2026-03-26T02:25:50.291328
MEAN_MOTION    = 14.16194905
ECCENTRICITY   = .0007841
INCLINATION    = 71.0108
RA_OF_ASC_NODE = 147.0635
ARG_OF_PERICENTER = 342.2992
MEAN_ANOMALY   = 17.7857

EPHEMERIS_TYPE = 0
CLASSIFICATION_TYPE = U
NORAD_CAT_ID   = 25407
ELEMENT_SET_NO = 999
REV_AT_EPOCH   = 42942
BSTAR          = -.91961E-4
MEAN_MOTION_DOT = -.23E-5
MEAN_MOTION_DDOT = 0

CCSDS_OMM_VERS = 2.0
CREATION_DATE  = 
ORIGINATOR     = 

OBJECT_NAME    = ISS (ZARYA)
OBJECT_ID      = 1998-067A
CENTER_NAME    = EARTH
REF_FRAME      = TEME
TIME_SYSTEM    = UTC
MEAN_ELEMENT_THEORY = SGP/SGP4

EPOCH          = 2026-03-26T03:56:25.627200
MEAN_MOTION    = 15.48550860
ECCENTRICITY   = .0006236
INCLINATION    = 51.6341
RA_OF_ASC_NODE = 350.9181
ARG_OF_PERICENTER = 233.8579
MEAN_ANOMALY   = 126.1832

EPHEMERIS_TYPE = 0
CLASSIFICATION_TYPE = U
NORAD_CAT_ID   = 25544
ELEMENT_SET_NO = 999
REV_AT_EPOCH   = 55888
BSTAR          = .25101E-3
MEAN_MOTION_DOT = .13194E-3
MEAN_MOTION_DDOT = 0

CCSDS_OMM_VERS = 2.0
CREATION_DATE  = 
ORIGINATOR     = 

OBJECT_NAME    = CZ-4B R/B
OBJECT_ID      = 1999-025C
CENTER_NAME    = EARTH
REF_FRAME      = TEME
TIME_SYSTEM    = UTC
MEAN_ELEMENT_THEORY = SGP/SGP4

EPOCH          = 2026-03-26T02:18:50.590368
MEAN_MOTION    = 14.18268478
ECCENTRICITY   = .0036068
INCLINATION    = 98.6594
RA_OF_ASC_NODE = 128.9870
ARG_OF_PERICENTER = 298.4929
MEAN_ANOMALY   = 88.0027

EPHEMERIS_TYPE = 0
CLASSIFICATION_TYPE = U
NORAD_CAT_ID   = 25732
ELEMENT_SET_NO = 999
REV_AT_EPOCH   = 39049
BSTAR          = .45223E-4
MEAN_MOTION_DOT = .5E-6
MEAN_MOTION_DDOT = 0

CCSDS_OMM_VERS = 2.0
CREATION_DATE  = 
ORIGINATOR     = 

OBJECT_NAME    = OKEAN-O
OBJECT_ID      = 1999-039A
CENTER_NAME    = EARTH
REF_FRAME      = TEME
TIME_SYSTEM    = UTC
MEAN_ELEMENT_THEORY = SGP/SGP4

EPOCH          = 2026-03-26T03:28:14.511360
MEAN_MOTION    = 14.80360863
ECCENTRICITY   = .0000886
INCLINATION    = 97.9408
RA_OF_ASC_NODE = 144.8661
ARG_OF_PERICENTER = 86.8361
MEAN_ANOMALY   = 273.2952

EPHEMERIS_TYPE = 0
CLASSIFICATION_TYPE = U
NORAD_CAT_ID   = 25860
ELEMENT_SET_NO = 999
REV_AT_EPOCH   = 43682
BSTAR          = .94748E-4
MEAN_MOTION_DOT = .671E-5
MEAN_MOTION_DDOT = 0

CCSDS_OMM_VERS = 2.0
CREATION_DATE  = 
ORIGINATOR     = 

OBJECT_NAME    = SL-16 R/B
OBJECT_ID      = 1999-039B
CENTER_NAME    = EARTH
REF_FRAME      = TEME
TIME_SYSTEM    = UTC
MEAN_ELEMENT_THEORY = SGP/SGP4

EPOCH          = 2026-03-26T02:36:58.574592
MEAN_MOTION    = 14.81752971
ECCENTRICITY   = .0014342
INCLINATION    = 97.9931
RA_OF_ASC_NODE = 144.1784
ARG_OF_PERICENTER = 199.1366
MEAN_ANOMALY   = 160.9310

EPHEMERIS_TYPE = 0
CLASSIFICATION_TYPE = U
NORAD_CAT_ID   = 25861
ELEMENT_SET_NO = 999
REV_AT_EPOCH   = 43929
BSTAR          = .74747E-4
MEAN_MOTION_DOT = .536E-5
MEAN_MOTION_DDOT = 0

CCSDS_OMM_VERS = 2.0
CREATION_DATE  = 
ORIGINATOR     = 

OBJECT_NAME    = DELTA 2 R/B
OBJECT_ID      = 1999-041E
CENTER_NAME    = EARTH
REF_FRAME      = TEME
TIME_SYSTEM    = UTC
MEAN_ELEMENT_THEORY = SGP/SGP4

EPOCH          = 2026-03-26T01:51:56.375712
MEAN_MOTION    = 14.11873411
ECCENTRICITY   = .0502636
INCLINATION    = 51.7606
RA_OF_ASC_NODE = 235.8151
ARG_OF_PERICENTER = 36.7660
MEAN_ANOMALY   = 326.6666

EPHEMERIS_TYPE = 0
CLASSIFICATION_TYPE = U
NORAD_CAT_ID   = 25876
ELEMENT_SET_NO = 999
REV_AT_EPOCH   = 36534
BSTAR          = .14763E-3
MEAN_MOTION_DOT = .671E-5
MEAN_MOTION_DDOT = 0

CCSDS_OMM_VERS = 2.0
CREATION_DATE  = 
ORIGINATOR     = 

OBJECT_NAME    = HELIOS 1B
OBJECT_ID      = 1999-064A
CENTER_NAME    = EARTH
REF_FRAME      = TEME
TIME_SYSTEM    = UTC
MEAN_ELEMENT_THEORY = SGP/SGP4

EPOCH          = 2026-03-26T02:59:30.450336
MEAN_MOTION    = 14.87759669
ECCENTRICITY   = .0001964
INCLINATION    = 98.1673
RA_OF_ASC_NODE = 347.8496
ARG_OF_PERICENTER = 53.7749
MEAN_ANOMALY   = 306.3647

EPHEMERIS_TYPE = 0
CLASSIFICATION_TYPE = U
NORAD_CAT_ID   = 25977
ELEMENT_SET_NO = 999
REV_AT_EPOCH   = 68770
BSTAR          = .18145E-3
MEAN_MOTION_DOT = .1597E-4
MEAN_MOTION_DDOT = 0

CCSDS_OMM_VERS = 2.0
CREATION_DATE  = 
ORIGINATOR     = 

OBJECT_NAME    = TERRA
OBJECT_ID      = 1999-068A
CENTER_NAME    = EARTH
REF_FRAME      = TEME
TIME_SYSTEM    = UTC
MEAN_ELEMENT_THEORY = SGP/SGP4

EPOCH          = 2026-03-26T03:28:03.540288
MEAN_MOTION    = 14.61031519
ECCENTRICITY   = .0003498
INCLINATION    = 97.9559
RA_OF_ASC_NODE = 137.9479
ARG_OF_PERICENTER = 117.0669
MEAN_ANOMALY   = 265.0586

EPHEMERIS_TYPE = 0
CLASSIFICATION_TYPE = U
NORAD_CAT_ID   = 25994
ELEMENT_SET_NO = 999
REV_AT_EPOCH   = 39748
BSTAR          = .94772E-4
MEAN_MOTION_DOT = .421E-5
MEAN_MOTION_DDOT = 0

CCSDS_OMM_VERS = 2.0
CREATION_DATE  = 
ORIGINATOR     = 

OBJECT_NAME    = SL-16 R/B
OBJECT_ID      = 2000-006B
CENTER_NAME    = EARTH
REF_FRAME      = TEME
TIME_SYSTEM    = UTC
MEAN_ELEMENT_THEORY = SGP/SGP4

EPOCH          = 2026-03-26T02:54:13.592160
MEAN_MOTION    = 14.15825413
ECCENTRICITY   = .0015903
INCLINATION    = 71.0014
RA_OF_ASC_NODE = 63.2842
ARG_OF_PERICENTER = 164.1847
MEAN_ANOMALY   = 195.9776

EPHEMERIS_TYPE = 0
CLASSIFICATION_TYPE = U
NORAD_CAT_ID   = 26070
ELEMENT_SET_NO = 999
REV_AT_EPOCH   = 35088
BSTAR          = .16296E-3
MEAN_MOTION_DOT = .273E-5
MEAN_MOTION_DDOT = 0

CCSDS_OMM_VERS = 2.0
CREATION_DATE  = 
ORIGINATOR     = 

OBJECT_NAME    = TITAN 4B R/B
OBJECT_ID      = 2000-047B
CENTER_NAME    = EARTH
REF_FRAME      = TEME
TIME_SYSTEM    = UTC
MEAN_ELEMENT_THEORY = SGP/SGP4

EPOCH          = 2026-03-26T04:39:13.882752
MEAN_MOTION    = 15.09714189
ECCENTRICITY   = .0039773
INCLINATION    = 67.9913
RA_OF_ASC_NODE = 354.0974
ARG_OF_PERICENTER = 16.0898
MEAN_ANOMALY   = 344.1504

EPHEMERIS_TYPE = 0
CLASSIFICATION_TYPE = U
NORAD_CAT_ID   = 26474
ELEMENT_SET_NO = 999
REV_AT_EPOCH   = 39540
BSTAR          = .22785E-3
MEAN_MOTION_DOT = .3613E-4
MEAN_MOTION_DDOT = 0

CCSDS_OMM_VERS = 2.0
CREATION_DATE  = 
ORIGINATOR     = 

OBJECT_NAME    = ENVISAT
OBJECT_ID      = 2002-009A
CENTER_NAME    = EARTH
REF_FRAME      = TEME
TIME_SYSTEM    = UTC
MEAN_ELEMENT_THEORY = SGP/SGP4

EPOCH          = 2026-03-25T20:59:09.165696
MEAN_MOTION    = 14.39042375
ECCENTRICITY   = .00012371
INCLINATION    = 98.3754
RA_OF_ASC_NODE = 38.0890
ARG_OF_PERICENTER = 81.5071
MEAN_ANOMALY   = 298.8736

EPHEMERIS_TYPE = 0
CLASSIFICATION_TYPE = U
NORAD_CAT_ID   = 27386
ELEMENT_SET_NO = 999
REV_AT_EPOCH   = 26150
BSTAR          = .55288495E-4
MEAN_MOTION_DOT = .128E-5
MEAN_MOTION_DDOT = 0

CCSDS_OMM_VERS = 2.0
CREATION_DATE  = 
ORIGINATOR     = 

OBJECT_NAME    = IDEFIX & ARIANE 42P R/B
OBJECT_ID      = 2002-021B
CENTER_NAME    = EARTH
REF_FRAME      = TEME
TIME_SYSTEM    = UTC
MEAN_ELEMENT_THEORY = SGP/SGP4

EPOCH          = 2026-03-26T01:36:14.184576
MEAN_MOTION    = 14.31036803
ECCENTRICITY   = .0012495
INCLINATION    = 98.5888
RA_OF_ASC_NODE = 23.4792
ARG_OF_PERICENTER = 135.0435
MEAN_ANOMALY   = 225.1762

EPHEMERIS_TYPE = 0
CLASSIFICATION_TYPE = U
NORAD_CAT_ID   = 27422
ELEMENT_SET_NO = 999
REV_AT_EPOCH   = 24636
BSTAR          = .12198E-3
MEAN_MOTION_DOT = .278E-5
MEAN_MOTION_DDOT = 0

