SL-16 R/B               
1 25407U 98045B   26085.10127652 -.00000230  00000+0 -91961-4 0  9995
2 25407  71.0108 147.0635 0007841 342.2992  17.7857 14.16194905429420
ISS (ZARYA)             
1 25544U 98067A   26085.16418550  .00013194  00000+0  25101-3 0  9990
2 25544  51.6341 350.9181 0006236 233.8579 126.1832 15.48550860558882
CZ-4B R/B               
1 25732U 99025C   26085.09641887  .00000050  00000+0  45223-4 0  9992
2 25732  98.6594 128.9870 0036068 298.4929  88.0027 14.18268478390492
OKEAN-O                 
1 25860U 99039A   26085.14461240  .00000671  00000+0  94748-4 0  9993
2 25860  97.9408 144.8661 0000886  86.8361 273.2952 14.80360863436826
SL-16 R/B               
1 25861U 99039B   26085.10901128  .00000536  00000+0  74747-4 0  9991
2 25861  97.9931 144.1784 0014342 199.1366 160.9310 14.81752971439292
DELTA 2 R/B             
1 25876U 99041E   26085.07773583  .00000671  00000+0  14763-3 0  9999
2 25876  51.7606 235.8151 0502636  36.7660 326.6666 14.11873411365347
HELIOS 1B               
1 25977U 99064A   26085.12465799  .00001597  00000+0  18145-3 0  9995
2 25977  98.1673 347.8496 0001964  53.7749 306.3647 14.87759669687701
TERRA                   
1 25994U 99068A   26085.14448542  .00000421  00000+0  94772-4 0  9993
2 25994  97.9559 137.9479 0003498 117.0669 265.0586 14.61031519397483
SL-16 R/B               
1 26070U 00006B   26085.12099065  .00000273  00000+0  16296-3 0  9992
2 26070  71.0014  63.2842 0015903 164.1847 195.9776 14.15825413350886
TITAN 4B R/B            
1 26474U 00047B   26085.19391068  .00003613  00000+0  22785-3 0  9991
2 26474  67.9913 354.0974 0039773  16.0898 344.1504 15.09714189395400
ENVISAT                 
1 27386U 02009A   26084.87441164  .00000128  00000+0  55288-4 0  9994
2 27386  98.3754  38.0890 0001237  81.5071 298.8736 14.39042375261502
IDEFIX & ARIANE 42P R/B 
1 27422U 02021B   26085.06683084  .00000278  00000+0  12198-3 0  9998
2 27422  98.5888  23.4792 0012495 135.0435 225.1762 14.31036803246369
